#dP2023  4 12  6  0  0.00000000      96 __u+U ITR00 EXT  IAC
## 2257 280800.00000000   900.00000000 60046 0.2500000000000
+  120   C06C07C08C09C10C11C12C13C14C16C19C20C21C22C23C24C25
+        C26C27C28C29C30C32C33C34C35C36C37C38C39C40C41C42C43
+        C44C45C46E01E02E03E04E05E07E08E09E10E11E12E13E14E15
+        E18E19E21E24E25E26E27E30E31E33E34E36G01G02G03G04G05
+        G06G07G08G09G10G11G12G13G14G15G16G17G18G19G20G21G22
+        G23G24G25G26G27G28G29G30G31G32J02J03J04R01R02R03R04
+        R05R07R08R09R11R12R13R14R15R16R17R18R19R20R21R22R24
+        R25  0  0  0  0  0  0  0  0  0  0  0  0  0  0  0  0
++        18 18 18 18 18 18 18 18 18 18 18 18 18 18 18 18 18
++         5 18 18 18 18 18 18 18 18 18 18 18 18 18 18 18 18
++        18 18 18 18 18 18 18 18 18 18 18 18 18 18 18 18 18
++        18 18 18 18 18 18 18 18 18 18 18 18 18 18 18 18 18
++        18 18 18 18 18 18 18 18 18 18 18 18 18 18 18 18 18
++        18 18 18 18 18 18 18 18 18 18 18 18 19 18 18 18 17
++        18 18 17 18 18 17 17 18 18 17 17 18 18 17  0 18 18
++        17  0  0  0  0  0  0  0  0  0  0  0  0  0  0  0  0
%c M  cc GPS ccc cccc cccc cccc cccc ccccc ccccc ccccc ccccc
%c cc cc ccc ccc cccc cccc cccc cccc ccccc ccccc ccccc ccccc
%f  0.0000000  0.000000000  0.00000000000  0.000000000000000
%f  0.0000000  0.000000000  0.00000000000  0.000000000000000
%i    0    0    0    0      0      0      0      0         0
%i    0    0    0    0      0      0      0      0         0
/* IAC                                ULTRA-RAPID PREDICTION
/* S/V CLOCKS ARE ALIGNED TO GNSS TIME                      
/* G:C1WC2W R:C1PC2P E:C1XC5X C:C2IC6I J:C1CC2S             
/* PCV:IGS20_2247 OL/AL:FES2004  NONE     YN ORB:CoN CLK:CoN
*  2023 04 12 18 30  0.00000000
PC06  -1411.763915  32376.374614  27146.657352   -197.152102
PC07 -16451.297806  27428.577855 -27509.936987    138.201132
PC08 -14567.539904  39295.628757   3674.407116    505.961860
PC09   5760.466520  36842.323350  20616.036225    774.722328
PC10  -7909.604222  28022.362049 -30331.887291    -31.650875
PC11 -17589.331656 -21375.007031   3656.623697    296.799894
PC12  -2876.609673 -20434.568919  18818.405611    567.413720
PC13  -9106.593652  39809.338020  10113.272954    251.300606
PC14 -13939.350861 -11185.068759 -21424.682430    114.618482
PC16  -3655.065725  30410.530329  29331.009550    111.314772
PC19  21980.174080   5165.313406  16414.128560   -900.734143
PC20   5378.203845  14799.610921  23057.292309    629.215054
PC21  15813.676875 -16215.522101 -16260.634188   -909.846521
PC22  26741.266740  -7919.961961    -87.184302   -539.109196
PC23 -17143.787233   8446.638251  20334.495237   -904.524169
PC24   -666.879723 -26230.972527   9519.381346   -179.361783
PC25 -13453.674720 -11330.473179  21658.170260    105.411090
PC26      0.000000      0.000000      0.000000   -105.333700
PC27  -5415.103676  16187.874533 -22102.499360    124.645972
PC28 -18933.240990   1391.698392 -20452.484301     91.763545
PC29  22756.737723  15070.062343   5818.598148    106.259347
PC30  11890.909657  22158.002740 -12137.266946      0.440982
PC32 -15756.045890  16364.011604  16241.835253   -580.290669
PC33 -21998.384135  -5060.128906 -16410.754513   -873.305182
PC34 -12909.686295 -22128.870073  11017.275060    147.492757
PC35  19456.234595  -1239.233393  19968.845880    647.290949
PC36  12854.019733  12365.897411 -21440.614271   -505.126281
PC37 -11557.649262  24190.719302   7713.852786   -790.636531
PC38 -18311.665869  37579.359622  -4895.183245     71.331855
PC39  -7415.522006  26382.498808  32151.545994     -2.520281
PC40 -22256.834194  21043.894360 -29095.065490    -20.161839
PC41 -26829.594744   7680.389450   -470.270829   -842.214309
PC42  -3973.543249 -15245.876601 -22982.785903   -740.254801
PC43 -22550.962801 -15622.070414  -5051.578026     16.383472
PC44   5115.179242 -16311.713700  22034.152264     73.894506
PC45  17031.207545  -8975.212213 -20212.806883    -84.221043
PC46   1776.118690  25570.640538 -10992.563589    -46.523050
PE01 -16926.855569  -5969.774543  23532.135685     -2.319316
PE02  17267.097110   5518.922184 -23411.506072     31.954601
PE03  27186.692254  10736.890907   4632.625363   -668.555389
PE04 -26356.294681   2511.125032  13251.784538    -99.141097
PE05  12018.526978  17980.802727  20218.227433    -77.409335
PE07  10165.546058 -14507.922533 -23700.622219    -37.100158
PE08  26441.719986  -2299.060226 -13085.673445    -66.320787
PE09 -10320.542762  14315.872962  23774.650317   -902.552784
PE10 -10892.243937  15593.066633 -22689.938274   -526.001369
PE11  -4468.355043  24295.747340 -16335.654793   1583.612024
PE12 -15209.084836   5325.564826 -24834.612108   -496.073336
PE13   4923.618855 -23737.144570  16975.300375    -18.488797
PE14  13742.547228  -9685.423632  16743.209333    195.268477
PE15  15250.299497  -4895.494087  24894.705301    -14.121234
PE18 -21277.182413  10893.470014 -21646.886964   -173.283805
PE19 -25979.019375 -12258.913380  -7123.191916  -2781.561405
PE21  -1339.851320 -19822.759479  21937.044733   -522.998502
PE24 -16838.977552  23298.172977  -7025.596563    -40.610500
PE25   1030.896751  19995.002234 -21799.233483   -603.154037
PE26  -8592.720466 -28278.329543  -1570.043522     73.297149
PE27  16256.984312 -23507.777564   7718.160786    -23.483812
PE30  24185.824946 -12725.266239 -11404.366190    -87.607055
PE31 -24089.732854  13302.866962  10898.916779   -521.120192
PE33 -16488.696671 -16665.412954 -18059.921961   -446.509560
PE34  16549.349914  16506.339315  18154.396725    -39.876012
PE36   8158.746066  28452.228371    786.358523    -40.377411
PG01  14051.823264  -3262.344463  21967.721075    193.894734
PG02  -9558.112972  14829.191646 -19464.076591   -606.663927
PG03  22000.007208 -11289.167796   9406.937079   -330.682058
PG04  22777.837668  -1824.334623 -13621.465091     15.238991
PG05 -17089.076143  -2902.428863 -20327.531539   -123.147301
PG06  -5062.543166 -26015.994479    363.897940    586.576513
PG07   8428.950797 -18137.196783 -16781.432237    202.841901
PG08  25970.571366   6158.755228   2078.757021   -117.427083
PG09  14401.022079 -10330.380290 -19865.649892   -181.411870
PG10  -6144.746730  20196.764697  16101.135435    -32.552195
PG11 -12302.966546 -19590.592364 -13073.558204   -160.319856
PG12 -22608.783781   7987.316106  11041.672600   -363.109731
PG13 -22643.997265 -13681.295140  -3543.103901    504.761181
PG14   9333.981554 -20703.748605  13664.052133     23.119969
PG15 -26405.009714  -3201.504229   1932.771148     30.026760
PG16  14897.722721   7138.257930 -21191.944231   -509.302552
PG17   -203.814763 -15899.648953  21688.462721    710.248109
PG18  -6154.563249  21106.467918 -14795.320317   -221.243760
PG19 -10634.778764 -17383.965360  16958.272571    302.758694
PG20 -10318.113030 -11774.946450 -21435.265884    439.428937
PG21  16780.970993   6134.137559  20464.554621    154.241129
PG22  13465.609672  17349.379167  15500.320953    462.911402
PG23 -15803.300473  20472.108452   5699.906613     16.402948
PG24 -16271.404662   -946.619421  20676.582878   -149.163112
PG25 -20185.026808  16904.833356   1790.700805    435.089235
PG26   4580.380492  16692.174830 -20177.701619    241.774651
PG27  21773.880713  13174.814113  -8561.588969     60.441497
PG28   4888.627676  26010.282087   2250.311899     63.736298
PG29 -18267.551540   5946.316830 -18428.195086   -595.223861
PG30    502.367542 -25298.145899  -7507.135432   -522.690416
PG31   8728.097279  24208.882180  -5741.028779   -213.812528
PG32   4281.308510  16491.015659  20601.889698   -449.703512
PJ02 -35013.017842  23424.112793   2877.789201     -1.499666
PJ03 -20991.093256  21616.943070 -24906.728490      2.206367
PJ04 -28483.507874  30449.629373  12771.254456     94.183220
PR01  -6236.728751 -10090.929574 -22575.550958     26.542766
PR02 -22174.453642  -3554.210800 -11986.219238    -22.958453
PR03 -24435.602434   5013.548576   5246.591813     75.896763
PR04 -13245.353399  10286.281221  19251.487285    183.058828
PR05   5160.131308  10195.422420  22825.225682    110.849779
PR07  24269.024336  -5268.628396  -5883.470725     53.686883
PR08  13069.424723 -10445.796773 -19200.466679    -70.305232
PR09   9875.290875   5664.685704 -22813.748418    114.349754
PR11  11233.813193 -22709.990729  -2877.747656    -34.813232
PR12    994.740982 -20436.022282  15265.271889     26.398023
PR13  -8706.621376  -7449.106112  22771.866514    -33.912473
PR14 -14370.681824  12134.461974  17248.261819     24.540304
PR15 -11018.262441  22946.430205   1702.603221     89.845712
PR16  -1163.001206  20605.553445 -15007.678515     13.437477
PR17 -12750.273392   -567.015367 -22086.972281    620.615628
PR18  -1745.197803  14102.077950 -21187.971331     76.192219
PR19   8571.093697  21563.738088 -10602.053322   -228.810205
PR20  16370.065883  16834.755493  10028.709067    -90.989381
PR21      0.000000      0.000000      0.000000      0.513567
PR22   1957.909515 -14843.201334  20670.092380     79.036541
PR24 -17112.103069 -15736.826123 -10493.322220    161.403188
PR25  13035.726164   1161.597229  21894.412910     61.179404
EOF
